[{"OBJECT_NAME":"STARLINK-2636","OBJECT_ID":"2021-038E","EPOCH":"2025-11-30T00:59:31.050240","MEAN_MOTION":15.06426732,"ECCENTRICITY":0.0001192,"INCLINATION":53.0544,"RA_OF_ASC_NODE":89.3811,"ARG_OF_PERICENTER":99.9618,"MEAN_ANOMALY":260.1506,"EPHEMERIS_TYPE":0,"CLASSIFICATION_TYPE":"U","NORAD_CAT_ID":48357,"ELEMENT_SET_NO":999,"REV_AT_EPOCH":25200,"BSTAR":-0.00032621,"MEAN_MOTION_DOT":-5.14e-5,"MEAN_MOTION_DDOT":0},{"OBJECT_NAME":"STARLINK-2624","OBJECT_ID":"2021-038F","EPOCH":"2025-11-30T01:31:18.313824","MEAN_MOTION":15.06403111,"ECCENTRICITY":0.0001229,"INCLINATION":53.0546,"RA_OF_ASC_NODE":88.8586,"ARG_OF_PERICENTER":81.5894,"MEAN_ANOMALY":278.5234,"EPHEMERIS_TYPE":0,"CLASSIFICATION_TYPE":"U","NORAD_CAT_ID":48358,"ELEMENT_SET_NO":999,"REV_AT_EPOCH":25200,"BSTAR":9.5619e-5,"MEAN_MOTION_DOT":1.143e-5,"MEAN_MOTION_DDOT":0},{"OBJECT_NAME":"STARLINK-2628","OBJECT_ID":"2021-038G","EPOCH":"2025-11-30T01:25:59.484000","MEAN_MOTION":15.0640491,"ECCENTRICITY":0.0001083,"INCLINATION":53.0539,"RA_OF_ASC_NODE":88.8757,"ARG_OF_PERICENTER":85.6263,"MEAN_ANOMALY":274.485,"EPHEMERIS_TYPE":0,"CLASSIFICATION_TYPE":"U","NORAD_CAT_ID":48359,"ELEMENT_SET_NO":999,"REV_AT_EPOCH":25200,"BSTAR":0.00017109,"MEAN_MOTION_DOT":2.268e-5,"MEAN_MOTION_DDOT":0},{"OBJECT_NAME":"STARLINK-2622","OBJECT_ID":"2021-038H","EPOCH":"2025-11-29T14:11:54.064608","MEAN_MOTION":15.06407916,"ECCENTRICITY":0.0001225,"INCLINATION":53.0563,"RA_OF_ASC_NODE":90.9735,"ARG_OF_PERICENTER":90.8301,"MEAN_ANOMALY":269.2828,"EPHEMERIS_TYPE":0,"CLASSIFICATION_TYPE":"U","NORAD_CAT_ID":48360,"ELEMENT_SET_NO":999,"REV_AT_EPOCH":25193,"BSTAR":0.0001186,"MEAN_MOTION_DOT":1.486e-5,"MEAN_MOTION_DDOT":0},{"OBJECT_NAME":"STARLINK-2591","OBJECT_ID":"2021-038J","EPOCH":"2025-11-30T01:15:22.778208","MEAN_MOTION":15.06398755,"ECCENTRICITY":0.0001125,"INCLINATION":53.0579,"RA_OF_ASC_NODE":88.9056,"ARG_OF_PERICENTER":82.3181,"MEAN_ANOMALY":277.7936,"EPHEMERIS_TYPE":0,"CLASSIFICATION_TYPE":"U","NORAD_CAT_ID":48361,"ELEMENT_SET_NO":999,"REV_AT_EPOCH":25200,"BSTAR":7.9704e-5,"MEAN_MOTION_DOT":9.06e-6,"MEAN_MOTION_DDOT":0},{"OBJECT_NAME":"STARLINK-2578","OBJECT_ID":"2021-038K","EPOCH":"2025-11-29T13:18:52.757856","MEAN_MOTION":15.06396371,"ECCENTRICITY":0.0001519,"INCLINATION":53.0559,"RA_OF_ASC_NODE":91.2263,"ARG_OF_PERICENTER":95.8346,"MEAN_ANOMALY":264.2816,"EPHEMERIS_TYPE":0,"CLASSIFICATION_TYPE":"U","NORAD_CAT_ID":48362,"ELEMENT_SET_NO":999,"REV_AT_EPOCH":25193,"BSTAR":-4.6883e-5,"MEAN_MOTION_DOT":-9.8e-6,"MEAN_MOTION_DDOT":0},{"OBJECT_NAME":"STARLINK-2626","OBJECT_ID":"2021-038L","EPOCH":"2025-11-30T04:00:03.998880","MEAN_MOTION":15.75873318,"ECCENTRICITY":0.0009437,"INCLINATION":53.0489,"RA_OF_ASC_NODE":3.1789,"ARG_OF_PERICENTER":23.3123,"MEAN_ANOMALY":298.7646,"EPHEMERIS_TYPE":0,"CLASSIFICATION_TYPE":"U","NORAD_CAT_ID":48363,"ELEMENT_SET_NO":999,"REV_AT_EPOCH":569,"BSTAR":0.0010572,"MEAN_MOTION_DOT":0.00169772,"MEAN_MOTION_DDOT":0},{"OBJECT_NAME":"STARLINK-2611","OBJECT_ID":"2021-038M","EPOCH":"2025-11-29T15:24:15.192864","MEAN_MOTION":15.06407957,"ECCENTRICITY":0.000128,"INCLINATION":53.056,"RA_OF_ASC_NODE":85.9104,"ARG_OF_PERICENTER":84.4101,"MEAN_ANOMALY":275.7034,"EPHEMERIS_TYPE":0,"CLASSIFICATION_TYPE":"U","NORAD_CAT_ID":48364,"ELEMENT_SET_NO":999,"REV_AT_EPOCH":25201,"BSTAR":0.00010755,"MEAN_MOTION_DOT":1.321e-5,"MEAN_MOTION_DDOT":0},{"OBJECT_NAME":"STARLINK-2608","OBJECT_ID":"2021-038N","EPOCH":"2025-11-29T17:42:13.386816","MEAN_MOTION":15.0639554,"ECCENTRICITY":0.0001331,"INCLINATION":53.0542,"RA_OF_ASC_NODE":85.3167,"ARG_OF_PERICENTER":86.8711,"MEAN_ANOMALY":273.2431,"EPHEMERIS_TYPE":0,"CLASSIFICATION_TYPE":"U","NORAD_CAT_ID":48365,"ELEMENT_SET_NO":999,"REV_AT_EPOCH":25203,"BSTAR":-4.6844e-5,"MEAN_MOTION_DOT":-9.79e-6,"MEAN_MOTION_DDOT":0},{"OBJECT_NAME":"STARLINK-2643","OBJECT_ID":"2021-038Q","EPOCH":"2025-11-29T23:41:10.663872","MEAN_MOTION":15.06392446,"ECCENTRICITY":0.0001308,"INCLINATION":53.0546,"RA_OF_ASC_NODE":79.1986,"ARG_OF_PERICENTER":89.8956,"MEAN_ANOMALY":270.2182,"EPHEMERIS_TYPE":0,"CLASSIFICATION_TYPE":"U","NORAD_CAT_ID":48367,"ELEMENT_SET_NO":999,"REV_AT_EPOCH":25213,"BSTAR":0.00033234,"MEAN_MOTION_DOT":4.671e-5,"MEAN_MOTION_DDOT":0},{"OBJECT_NAME":"STARLINK-2623","OBJECT_ID":"2021-038R","EPOCH":"2025-11-30T00:44:55.150368","MEAN_MOTION":15.0639823,"ECCENTRICITY":0.0001362,"INCLINATION":53.0554,"RA_OF_ASC_NODE":79.2781,"ARG_OF_PERICENTER":89.1069,"MEAN_ANOMALY":271.0076,"EPHEMERIS_TYPE":0,"CLASSIFICATION_TYPE":"U","NORAD_CAT_ID":48368,"ELEMENT_SET_NO":999,"REV_AT_EPOCH":25214,"BSTAR":0.00029314,"MEAN_MOTION_DOT":4.087e-5,"MEAN_MOTION_DDOT":0},{"OBJECT_NAME":"STARLINK-2621","OBJECT_ID":"2021-038T","EPOCH":"2025-11-29T13:57:19.407168","MEAN_MOTION":15.06393988,"ECCENTRICITY":0.0001251,"INCLINATION":53.0533,"RA_OF_ASC_NODE":81.0233,"ARG_OF_PERICENTER":89.0302,"MEAN_ANOMALY":271.0831,"EPHEMERIS_TYPE":0,"CLASSIFICATION_TYPE":"U","NORAD_CAT_ID":48370,"ELEMENT_SET_NO":999,"REV_AT_EPOCH":25207,"BSTAR":0.00013108,"MEAN_MOTION_DOT":1.671e-5,"MEAN_MOTION_DDOT":0},{"OBJECT_NAME":"STARLINK-2589","OBJECT_ID":"2021-038U","EPOCH":"2025-11-29T13:52:01.325568","MEAN_MOTION":15.06389726,"ECCENTRICITY":0.0001247,"INCLINATION":53.0552,"RA_OF_ASC_NODE":81.0374,"ARG_OF_PERICENTER":91.6107,"MEAN_ANOMALY":268.5025,"EPHEMERIS_TYPE":0,"CLASSIFICATION_TYPE":"U","NORAD_CAT_ID":48371,"ELEMENT_SET_NO":999,"REV_AT_EPOCH":25207,"BSTAR":2.5758e-5,"MEAN_MOTION_DOT":1.02e-6,"MEAN_MOTION_DDOT":0},{"OBJECT_NAME":"STARLINK-2609","OBJECT_ID":"2021-038W","EPOCH":"2025-11-29T13:41:24.328608","MEAN_MOTION":15.06392732,"ECCENTRICITY":0.0001345,"INCLINATION":53.0544,"RA_OF_ASC_NODE":81.0704,"ARG_OF_PERICENTER":86.1835,"MEAN_ANOMALY":273.9308,"EPHEMERIS_TYPE":0,"CLASSIFICATION_TYPE":"U","NORAD_CAT_ID":48373,"ELEMENT_SET_NO":999,"REV_AT_EPOCH":25207,"BSTAR":0.00012026,"MEAN_MOTION_DOT":1.51e-5,"MEAN_MOTION_DDOT":0},{"OBJECT_NAME":"STARLINK-2604","OBJECT_ID":"2021-038X","EPOCH":"2025-11-29T14:23:55.249728","MEAN_MOTION":15.06392918,"ECCENTRICITY":0.0001286,"INCLINATION":53.0543,"RA_OF_ASC_NODE":81.2874,"ARG_OF_PERICENTER":95.7972,"MEAN_ANOMALY":264.3164,"EPHEMERIS_TYPE":0,"CLASSIFICATION_TYPE":"U","NORAD_CAT_ID":48374,"ELEMENT_SET_NO":999,"REV_AT_EPOCH":25207,"BSTAR":4.0014e-5,"MEAN_MOTION_DOT":3.15e-6,"MEAN_MOTION_DDOT":0},{"OBJECT_NAME":"STARLINK-2603","OBJECT_ID":"2021-038Y","EPOCH":"2025-11-30T00:39:33.663744","MEAN_MOTION":15.0639823,"ECCENTRICITY":0.0001457,"INCLINATION":53.0572,"RA_OF_ASC_NODE":79.019,"ARG_OF_PERICENTER":90.7195,"MEAN_ANOMALY":269.3961,"EPHEMERIS_TYPE":0,"CLASSIFICATION_TYPE":"U","NORAD_CAT_ID":48375,"ELEMENT_SET_NO":999,"REV_AT_EPOCH":25214,"BSTAR":0.00016998,"MEAN_MOTION_DOT":2.251e-5,"MEAN_MOTION_DDOT":0},{"OBJECT_NAME":"STARLINK-2610","OBJECT_ID":"2021-038Z","EPOCH":"2025-11-29T16:36:33.947712","MEAN_MOTION":15.06399524,"ECCENTRICITY":0.000124,"INCLINATION":53.0551,"RA_OF_ASC_NODE":80.5216,"ARG_OF_PERICENTER":79.9955,"MEAN_ANOMALY":280.1174,"EPHEMERIS_TYPE":0,"CLASSIFICATION_TYPE":"U","NORAD_CAT_ID":48376,"ELEMENT_SET_NO":999,"REV_AT_EPOCH":25209,"BSTAR":0.0002785,"MEAN_MOTION_DOT":3.869e-5,"MEAN_MOTION_DDOT":0}]
