STARLINK-2636           
1 48357U 21038E   25334.04133160 -.00005140  00000+0 -32621-3 0  9994
2 48357  53.0544  89.3811 0001192  99.9618 260.1506 15.06426732252000
STARLINK-2624           
1 48358U 21038F   25334.06340641  .00001143  00000+0  95619-4 0  9995
2 48358  53.0546  88.8586 0001229  81.5894 278.5234 15.06403111252007
STARLINK-2628           
1 48359U 21038G   25334.05971625  .00002268  00000+0  17109-3 0  9993
2 48359  53.0539  88.8757 0001083  85.6263 274.4850 15.06404910252000
STARLINK-2622           
1 48360U 21038H   25333.59159797  .00001486  00000+0  11860-3 0  9990
2 48360  53.0563  90.9735 0001225  90.8301 269.2828 15.06407916251935
STARLINK-2591           
1 48361U 21038J   25334.05234697  .00000906  00000+0  79704-4 0  9994
2 48361  53.0579  88.9056 0001125  82.3181 277.7936 15.06398755252000
STARLINK-2578           
1 48362U 21038K   25333.55477729 -.00000980  00000+0 -46883-4 0  9990
2 48362  53.0559  91.2263 0001519  95.8346 264.2816 15.06396371251936
STARLINK-2626           
1 48363U 21038L   25334.16671295  .00169772  00000+0  10572-2 0  9990
2 48363  53.0489   3.1789 0009437  23.3123 298.7646 15.75873318  5690
STARLINK-2611           
1 48364U 21038M   25333.64184251  .00001321  00000+0  10755-3 0  9993
2 48364  53.0560  85.9104 0001280  84.4101 275.7034 15.06407957252014
STARLINK-2608           
1 48365U 21038N   25333.73765494 -.00000979  00000+0 -46844-4 0  9997
2 48365  53.0542  85.3167 0001331  86.8711 273.2431 15.06395540252038
STARLINK-2643           
1 48367U 21038Q   25333.98692898  .00004671  00000+0  33234-3 0  9992
2 48367  53.0546  79.1986 0001308  89.8956 270.2182 15.06392446252135
STARLINK-2623           
1 48368U 21038R   25334.03119387  .00004087  00000+0  29314-3 0  9992
2 48368  53.0554  79.2781 0001362  89.1069 271.0076 15.06398230252146
STARLINK-2621           
1 48370U 21038T   25333.58147462  .00001671  00000+0  13108-3 0  9999
2 48370  53.0533  81.0233 0001251  89.0302 271.0831 15.06393988252071
STARLINK-2589           
1 48371U 21038U   25333.57779312  .00000102  00000+0  25758-4 0  9997
2 48371  53.0552  81.0374 0001247  91.6107 268.5025 15.06389726252077
STARLINK-2609           
1 48373U 21038W   25333.57042047  .00001510  00000+0  12026-3 0  9994
2 48373  53.0544  81.0704 0001345  86.1835 273.9308 15.06392732252078
STARLINK-2604           
1 48374U 21038X   25333.59994502  .00000315  00000+0  40014-4 0  9990
2 48374  53.0543  81.2874 0001286  95.7972 264.3164 15.06392918252070
STARLINK-2603           
1 48375U 21038Y   25334.02747296  .00002251  00000+0  16998-3 0  9990
2 48375  53.0572  79.0190 0001457  90.7195 269.3961 15.06398230252142
STARLINK-2610           
1 48376U 21038Z   25333.69205958  .00003869  00000+0  27850-3 0  9992
2 48376  53.0551  80.5216 0001240  79.9955 280.1174 15.06399524252097
